{"type": "FeatureCollection", "features": [ {"type": "Feature", "properties": {"norad_id": 66707, "name": "FLOCK 4H-4", "group": "last-30-days", "lat": 26.90081560098587, "lon": 67.14616285404513, "alt_km": 515.3575428833992, "timestamp": "2025-12-25T09:48:51.004533+00:00", "meta": {"OBJECT_NAME": "FLOCK 4H-4", "OBJECT_ID": "2025-276AT", "EPOCH": "2025-12-25T03:21:48.616128", "MEAN_MOTION": 15.17235387, "ECCENTRICITY": 0.0003636, "INCLINATION": 97.4425, "RA_OF_ASC_NODE": 70.6849, "ARG_OF_PERICENTER": 240.3521, "MEAN_ANOMALY": 119.7351, "EPHEMERIS_TYPE": 0, "CLASSIFICATION_TYPE": "U", "NORAD_CAT_ID": 66707, "ELEMENT_SET_NO": 999, "REV_AT_EPOCH": 400, "BSTAR": 0.00039505, "MEAN_MOTION_DOT": 7.796e-05, "MEAN_MOTION_DDOT": 0}, "tle": {"line1": "1 66707U 25276AT  25359.14014602  .00007796  00000+0  39505-3 0  9993", "line2": "2 66707  97.4425  70.6849 0003636 240.3521 119.7351 15.17235387  4001"}}, "geometry": {"type": "Point", "coordinates": [67.14616285404513, 26.90081560098587]}}, {"type": "Feature", "properties": {"norad_id": 66708, "name": "FLOCK 4H-5", "group": "last-30-days", "lat": 60.595520103234065, "lon": -95.62449828051346, "alt_km": 504.51625176945254, "timestamp": "2025-12-25T09:48:51.004542+00:00", "meta": {"OBJECT_NAME": "FLOCK 4H-5", "OBJECT_ID": "2025-276AU", "EPOCH": "2025-12-25T01:23:06.072288", "MEAN_MOTION": 15.1819264, "ECCENTRICITY": 0.0001336, "INCLINATION": 97.438, "RA_OF_ASC_NODE": 70.6265, "ARG_OF_PERICENTER": 124.4503, "MEAN_ANOMALY": 235.6858, "EPHEMERIS_TYPE": 0, "CLASSIFICATION_TYPE": "U", "NORAD_CAT_ID": 66708, "ELEMENT_SET_NO": 999, "REV_AT_EPOCH": 399, "BSTAR": 0.00037597, "MEAN_MOTION_DOT": 7.622e-05, "MEAN_MOTION_DDOT": 0}, "tle": {"line1": "1 66708U 25276AU  25359.05770917  .00007622  00000+0  37597-3 0  9999", "line2": "2 66708  97.4380  70.6265 0001336 124.4503 235.6858 15.18192640  3993"}}, "geometry": {"type": "Point", "coordinates": [-95.62449828051346, 60.595520103234065]}}, {"type": "Feature", "properties": {"norad_id": 66709, "name": "FLOCK 4H-6", "group": "last-30-days", "lat": 80.33845234593673, "lon": -58.85454229931299, "alt_km": 504.9804880721249, "timestamp": "2025-12-25T09:48:51.004564+00:00", "meta": {"OBJECT_NAME": "FLOCK 4H-6", "OBJECT_ID": "2025-276AV", "EPOCH": "2025-12-25T03:03:48.845088", "MEAN_MOTION": 15.17942988, "ECCENTRICITY": 0.0002783, "INCLINATION": 97.4426, "RA_OF_ASC_NODE": 70.7057, "ARG_OF_PERICENTER": 197.015, "MEAN_ANOMALY": 163.0991, "EPHEMERIS_TYPE": 0, "CLASSIFICATION_TYPE": "U", "NORAD_CAT_ID": 66709, "ELEMENT_SET_NO": 999, "REV_AT_EPOCH": 400, "BSTAR": 0.00049697, "MEAN_MOTION_DOT": 0.00010028, "MEAN_MOTION_DDOT": 0}, "tle": {"line1": "1 66709U 25276AV  25359.12764867  .00010028  00000+0  49697-3 0  9993", "line2": "2 66709  97.4426  70.7057 0002783 197.0150 163.0991 15.17942988  4008"}}, "geometry": {"type": "Point", "coordinates": [-58.85454229931299, 80.33845234593673]}}, {"type": "Feature", "properties": {"norad_id": 66710, "name": "FLOCK 4H-7", "group": "last-30-days", "lat": 51.38933087060686, "lon": 61.52556860398759, "alt_km": 509.17360351519346, "timestamp": "2025-12-25T09:48:51.004575+00:00", "meta": {"OBJECT_NAME": "FLOCK 4H-7", "OBJECT_ID": "2025-276AW", "EPOCH": "2025-12-25T03:15:20.210112", "MEAN_MOTION": 15.17512129, "ECCENTRICITY": 0.0001004, "INCLINATION": 97.4385, "RA_OF_ASC_NODE": 70.6732, "ARG_OF_PERICENTER": 273.2342, "MEAN_ANOMALY": 86.8777, "EPHEMERIS_TYPE": 0, "CLASSIFICATION_TYPE": "U", "NORAD_CAT_ID": 66710, "ELEMENT_SET_NO": 999, "REV_AT_EPOCH": 400, "BSTAR": 0.00030563, "MEAN_MOTION_DOT": 6.062e-05, "MEAN_MOTION_DDOT": 0}, "tle": {"line1": "1 66710U 25276AW  25359.13565058  .00006062  00000+0  30563-3 0  9992", "line2": "2 66710  97.4385  70.6732 0001004 273.2342  86.8777 15.17512129  4002"}}, "geometry": {"type": "Point", "coordinates": [61.52556860398759, 51.38933087060686]}}, {"type": "Feature", "properties": {"norad_id": 66711, "name": "FLOCK 4H-8", "group": "last-30-days", "lat": 50.15695810563288, "lon": 61.94978644873795, "alt_km": 510.26261764335686, "timestamp": "2025-12-25T09:48:51.004585+00:00", "meta": {"OBJECT_NAME": "FLOCK 4H-8", "OBJECT_ID": "2025-276AX", "EPOCH": "2025-12-25T03:15:40.013856", "MEAN_MOTION": 15.17516875, "ECCENTRICITY": 0.0002331, "INCLINATION": 97.4426, "RA_OF_ASC_NODE": 70.6946, "ARG_OF_PERICENTER": 255.5146, "MEAN_ANOMALY": 104.5829, "EPHEMERIS_TYPE": 0, "CLASSIFICATION_TYPE": "U", "NORAD_CAT_ID": 66711, "ELEMENT_SET_NO": 999, "REV_AT_EPOCH": 400, "BSTAR": 0.00055199, "MEAN_MOTION_DOT": 0.00011011, "MEAN_MOTION_DDOT": 0}, "tle": {"line1": "1 66711U 25276AX  25359.13587979  .00011011  00000+0  55199-3 0  9991", "line2": "2 66711  97.4426  70.6946 0002331 255.5146 104.5829 15.17516875  4003"}}, "geometry": {"type": "Point", "coordinates": [61.94978644873795, 50.15695810563288]}}, {"type": "Feature", "properties": {"norad_id": 66712, "name": "FLOCK 4H-9", "group": "last-30-days", "lat": 80.9492393526362, "lon": -53.87668291379488, "alt_km": 505.2562010714164, "timestamp": "2025-12-25T09:48:51.004600+00:00", "meta": {"OBJECT_NAME": "FLOCK 4H-9", "OBJECT_ID": "2025-276AY", "EPOCH": "2025-12-25T03:04:04.829088", "MEAN_MOTION": 15.17945845, "ECCENTRICITY": 0.0002829, "INCLINATION": 97.442, "RA_OF_ASC_NODE": 70.7032, "ARG_OF_PERICENTER": 205.1005, "MEAN_ANOMALY": 155.0091, "EPHEMERIS_TYPE": 0, "CLASSIFICATION_TYPE": "U", "NORAD_CAT_ID": 66712, "ELEMENT_SET_NO": 999, "REV_AT_EPOCH": 400, "BSTAR": 0.00039648, "MEAN_MOTION_DOT": 7.985e-05, "MEAN_MOTION_DDOT": 0}, "tle": {"line1": "1 66712U 25276AY  25359.12783367  .00007985  00000+0  39648-3 0  9996", "line2": "2 66712  97.4420  70.7032 0002829 205.1005 155.0091 15.17945845  4007"}}, "geometry": {"type": "Point", "coordinates": [-53.87668291379488, 80.9492393526362]}}, {"type": "Feature", "properties": {"norad_id": 66713, "name": "FLOCK 4H-10", "group": "last-30-days", "lat": 31.048287713714863, "lon": 66.42860741405723, "alt_km": 514.3969916061642, "timestamp": "2025-12-25T09:48:51.004612+00:00", "meta": {"OBJECT_NAME": "FLOCK 4H-10", "OBJECT_ID": "2025-276AZ", "EPOCH": "2025-12-24T16:15:58.084704", "MEAN_MOTION": 15.17303187, "ECCENTRICITY": 0.00036866, "INCLINATION": 97.4395, "RA_OF_ASC_NODE": 70.2224, "ARG_OF_PERICENTER": 249.1772, "MEAN_ANOMALY": 110.9067, "EPHEMERIS_TYPE": 0, "CLASSIFICATION_TYPE": "U", "NORAD_CAT_ID": 66713, "ELEMENT_SET_NO": 999, "REV_AT_EPOCH": 393, "BSTAR": 0.00061957907, "MEAN_MOTION_DOT": 0.00012295, "MEAN_MOTION_DDOT": 0}, "tle": {"line1": "1 66713U 25276AZ  25358.67775561  .00012295  00000+0  61958-3 0  9992", "line2": "2 66713  97.4395  70.2224 0003686 249.1772 110.9067 15.17303187  3939"}}, "geometry": {"type": "Point", "coordinates": [66.42860741405723, 31.048287713714863]}}, {"type": "Feature", "properties": {"norad_id": 66714, "name": "FLOCK 4H-11", "group": "last-30-days", "lat": 62.42623884561783, "lon": 56.470113048968884, "alt_km": 510.16402454083345, "timestamp": "2025-12-25T09:48:51.004622+00:00", "meta": {"OBJECT_NAME": "FLOCK 4H-11", "OBJECT_ID": "2025-276BA", "EPOCH": "2025-12-25T03:12:13.890240", "MEAN_MOTION": 15.17209562, "ECCENTRICITY": 0.0002036, "INCLINATION": 97.4412, "RA_OF_ASC_NODE": 70.694, "ARG_OF_PERICENTER": 231.5226, "MEAN_ANOMALY": 128.5825, "EPHEMERIS_TYPE": 0, "CLASSIFICATION_TYPE": "U", "NORAD_CAT_ID": 66714, "ELEMENT_SET_NO": 999, "REV_AT_EPOCH": 400, "BSTAR": -0.018716, "MEAN_MOTION_DOT": -0.00354347, "MEAN_MOTION_DDOT": 0}, "tle": {"line1": "1 66714U 25276BA  25359.13349410 -.00354347  00000+0 -18716-1 0  9996", "line2": "2 66714  97.4412  70.6940 0002036 231.5226 128.5825 15.17209562  4004"}}, "geometry": {"type": "Point", "coordinates": [56.470113048968884, 62.42623884561783]}}, {"type": "Feature", "properties": {"norad_id": 66715, "name": "FLOCK 4H-12", "group": "last-30-days", "lat": 70.45963250848943, "lon": -87.43358871201718, "alt_km": 504.14876034813733, "timestamp": "2025-12-25T09:48:51.004632+00:00", "meta": {"OBJECT_NAME": "FLOCK 4H-12", "OBJECT_ID": "2025-276BB", "EPOCH": "2025-12-25T03:00:43.125696", "MEAN_MOTION": 15.181038, "ECCENTRICITY": 0.0002128, "INCLINATION": 97.4386, "RA_OF_ASC_NODE": 70.6875, "ARG_OF_PERICENTER": 174.7335, "MEAN_ANOMALY": 185.3921, "EPHEMERIS_TYPE": 0, "CLASSIFICATION_TYPE": "U", "NORAD_CAT_ID": 66715, "ELEMENT_SET_NO": 999, "REV_AT_EPOCH": 431, "BSTAR": 0.00060726, "MEAN_MOTION_DOT": 0.00012329, "MEAN_MOTION_DDOT": 0}, "tle": {"line1": "1 66715U 25276BB  25359.12549914  .00012329  00000+0  60726-3 0  9996", "line2": "2 66715  97.4386  70.6875 0002128 174.7335 185.3921 15.18103800  4314"}}, "geometry": {"type": "Point", "coordinates": [-87.43358871201718, 70.45963250848943]}}, {"type": "Feature", "properties": {"norad_id": 66716, "name": "FLOCK 4H-13", "group": "last-30-days", "lat": 58.01786496147647, "lon": -96.93510767289584, "alt_km": 503.6493963498806, "timestamp": "2025-12-25T09:48:51.004644+00:00", "meta": {"OBJECT_NAME": "FLOCK 4H-13", "OBJECT_ID": "2025-276BC", "EPOCH": "2025-12-25T02:57:24.403104", "MEAN_MOTION": 15.18508651, "ECCENTRICITY": 0.0001486, "INCLINATION": 97.4402, "RA_OF_ASC_NODE": 70.7036, "ARG_OF_PERICENTER": 162.6372, "MEAN_ANOMALY": 197.4913, "EPHEMERIS_TYPE": 0, "CLASSIFICATION_TYPE": "U", "NORAD_CAT_ID": 66716, "ELEMENT_SET_NO": 999, "REV_AT_EPOCH": 400, "BSTAR": 0.010458, "MEAN_MOTION_DOT": 0.00222189, "MEAN_MOTION_DDOT": 0}, "tle": {"line1": "1 66716U 25276BC  25359.12319911  .00222189  00000+0  10458-1 0  9991", "line2": "2 66716  97.4402  70.7036 0001486 162.6372 197.4913 15.18508651  4001"}}, "geometry": {"type": "Point", "coordinates": [-96.93510767289584, 58.01786496147647]}}]}